IRIDIUM 39              
1 25042U 97069D   25166.40268187  .00000484  00000+0  12155-3 0  9992
2 25042  86.3931 211.8958 0016110 318.7304  41.2682 14.49218775448708
IRIDIUM 38              
1 25043U 97069E   25166.42941112  .00000376  00000+0  11761-3 0  9993
2 25043  86.3968 233.8936 0004257  98.4452 261.7229 14.38117207445703
IRIDIUM 42              
1 25077U 97077A   25166.43345439  .00000315  00000+0  10102-3 0  9991
2 25077  86.3969 240.0594 0002996 100.7265 259.4269 14.36351657440944
IRIDIUM 44              
1 25078U 97077B   25166.39263316  .00000348  00000+0  10379-3 0  9992
2 25078  86.3975 222.0081 0003704  67.1378 293.0212 14.40241527443441
IRIDIUM 45              
1 25104U 97082A   25166.41301670  .00013570  00000+0  48619-3 0  9996
2 25104  86.3581  48.7569 0115515 339.6764  19.9900 15.22398956451772
IRIDIUM 24              
1 25105U 97082B   25166.50686380  .00000427  00000+0  12372-3 0  9995
2 25105  86.3901  81.0143 0013667  84.0595 276.2163 14.42098311442979
IRIDIUM 51              
1 25262U 98018A   25166.40620030  .00020501  00000+0  45710-3 0  9995
2 25262  86.3833  56.7163 0083463 256.6226 102.5713 15.39732731446757
IRIDIUM 57              
1 25273U 98019B   25166.36010613  .00000302  00000+0  97474-4 0  9995
2 25273  86.3970 146.0271 0002385  88.4925 271.6545 14.35892550424528
